[{"OBJECT_NAME":"EUTELSAT 9B","OBJECT_ID":"2016-005A","EPOCH":"2026-03-03T15:49:50.687616","MEAN_MOTION":1.00274347,"ECCENTRICITY":0.0004332,"INCLINATION":0.0244,"RA_OF_ASC_NODE":59.2723,"ARG_OF_PERICENTER":259.6648,"MEAN_ANOMALY":88.9322,"EPHEMERIS_TYPE":0,"CLASSIFICATION_TYPE":"U","NORAD_CAT_ID":41310,"ELEMENT_SET_NO":999,"REV_AT_EPOCH":3705,"BSTAR":0,"MEAN_MOTION_DOT":4.8e-7,"MEAN_MOTION_DDOT":0},{"OBJECT_NAME":"EUTELSAT 65 WEST A","OBJECT_ID":"2016-014A","EPOCH":"2026-03-03T18:54:03.036096","MEAN_MOTION":1.00272459,"ECCENTRICITY":0.0002243,"INCLINATION":0.0701,"RA_OF_ASC_NODE":40.6499,"ARG_OF_PERICENTER":296.5619,"MEAN_ANOMALY":42.646,"EPHEMERIS_TYPE":0,"CLASSIFICATION_TYPE":"U","NORAD_CAT_ID":41382,"ELEMENT_SET_NO":999,"REV_AT_EPOCH":3647,"BSTAR":0,"MEAN_MOTION_DOT":-2.9e-6,"MEAN_MOTION_DDOT":0},{"OBJECT_NAME":"EUTELSAT 117 WEST B","OBJECT_ID":"2016-038B","EPOCH":"2026-03-03T11:48:28.224576","MEAN_MOTION":1.00271412,"ECCENTRICITY":1.04e-5,"INCLINATION":0.0336,"RA_OF_ASC_NODE":12.5223,"ARG_OF_PERICENTER":202.0332,"MEAN_ANOMALY":6.8113,"EPHEMERIS_TYPE":0,"CLASSIFICATION_TYPE":"U","NORAD_CAT_ID":41589,"ELEMENT_SET_NO":999,"REV_AT_EPOCH":3560,"BSTAR":0,"MEAN_MOTION_DOT":-2.6e-7,"MEAN_MOTION_DDOT":0},{"OBJECT_NAME":"EUTELSAT 172B","OBJECT_ID":"2017-029B","EPOCH":"2026-03-03T18:18:58.896288","MEAN_MOTION":1.00272077,"ECCENTRICITY":1.84e-5,"INCLINATION":0.0192,"RA_OF_ASC_NODE":155.2041,"ARG_OF_PERICENTER":81.635,"MEAN_ANOMALY":11.4007,"EPHEMERIS_TYPE":0,"CLASSIFICATION_TYPE":"U","NORAD_CAT_ID":42741,"ELEMENT_SET_NO":999,"REV_AT_EPOCH":3268,"BSTAR":0,"MEAN_MOTION_DOT":-2.0e-7,"MEAN_MOTION_DDOT":0},{"OBJECT_NAME":"EUTELSAT 7C","OBJECT_ID":"2019-034B","EPOCH":"2026-03-03T19:14:38.561280","MEAN_MOTION":1.0027008,"ECCENTRICITY":0.0003319,"INCLINATION":0.0725,"RA_OF_ASC_NODE":180.8078,"ARG_OF_PERICENTER":149.0283,"MEAN_ANOMALY":127.3508,"EPHEMERIS_TYPE":0,"CLASSIFICATION_TYPE":"U","NORAD_CAT_ID":44334,"ELEMENT_SET_NO":999,"REV_AT_EPOCH":577,"BSTAR":0,"MEAN_MOTION_DOT":3.4e-7,"MEAN_MOTION_DDOT":0},{"OBJECT_NAME":"EUTELSAT 5 WEST B","OBJECT_ID":"2019-067A","EPOCH":"2026-03-03T19:11:08.896128","MEAN_MOTION":1.00272501,"ECCENTRICITY":0.0003204,"INCLINATION":0.0961,"RA_OF_ASC_NODE":309.5325,"ARG_OF_PERICENTER":41.5845,"MEAN_ANOMALY":93.1887,"EPHEMERIS_TYPE":0,"CLASSIFICATION_TYPE":"U","NORAD_CAT_ID":44624,"ELEMENT_SET_NO":999,"REV_AT_EPOCH":2338,"BSTAR":0,"MEAN_MOTION_DOT":-5.6e-7,"MEAN_MOTION_DDOT":0},{"OBJECT_NAME":"EUTELSAT KONNECT","OBJECT_ID":"2020-005B","EPOCH":"2026-03-03T19:14:38.561280","MEAN_MOTION":1.00271071,"ECCENTRICITY":0.0001068,"INCLINATION":0.0668,"RA_OF_ASC_NODE":97.9099,"ARG_OF_PERICENTER":222.6433,"MEAN_ANOMALY":136.8477,"EPHEMERIS_TYPE":0,"CLASSIFICATION_TYPE":"U","NORAD_CAT_ID":45027,"ELEMENT_SET_NO":999,"REV_AT_EPOCH":2327,"BSTAR":0,"MEAN_MOTION_DOT":3.5e-7,"MEAN_MOTION_DDOT":0},{"OBJECT_NAME":"EUTELSAT QUANTUM","OBJECT_ID":"2021-069B","EPOCH":"2026-03-03T17:43:32.291616","MEAN_MOTION":1.00271865,"ECCENTRICITY":0.000293,"INCLINATION":0.0443,"RA_OF_ASC_NODE":308.4279,"ARG_OF_PERICENTER":29.773,"MEAN_ANOMALY":136.8642,"EPHEMERIS_TYPE":0,"CLASSIFICATION_TYPE":"U","NORAD_CAT_ID":49056,"ELEMENT_SET_NO":999,"REV_AT_EPOCH":1687,"BSTAR":0,"MEAN_MOTION_DOT":1.12e-6,"MEAN_MOTION_DDOT":0},{"OBJECT_NAME":"EUTELSAT KONNECT VHTS","OBJECT_ID":"2022-110A","EPOCH":"2026-03-03T07:14:36.760704","MEAN_MOTION":1.00270723,"ECCENTRICITY":0.00028423,"INCLINATION":0.0592,"RA_OF_ASC_NODE":102.4824,"ARG_OF_PERICENTER":212.0325,"MEAN_ANOMALY":317.8745,"EPHEMERIS_TYPE":0,"CLASSIFICATION_TYPE":"U","NORAD_CAT_ID":53765,"ELEMENT_SET_NO":999,"REV_AT_EPOCH":577,"BSTAR":0,"MEAN_MOTION_DOT":1.0e-8,"MEAN_MOTION_DDOT":0},{"OBJECT_NAME":"EUTELSAT HOTBIRD 13F","OBJECT_ID":"2022-134A","EPOCH":"2026-03-03T19:16:23.393856","MEAN_MOTION":1.00271989,"ECCENTRICITY":0.0002101,"INCLINATION":0.0587,"RA_OF_ASC_NODE":295.8316,"ARG_OF_PERICENTER":61.374,"MEAN_ANOMALY":106.433,"EPHEMERIS_TYPE":0,"CLASSIFICATION_TYPE":"U","NORAD_CAT_ID":54048,"ELEMENT_SET_NO":999,"REV_AT_EPOCH":1232,"BSTAR":0,"MEAN_MOTION_DOT":7.3e-7,"MEAN_MOTION_DDOT":0},{"OBJECT_NAME":"EUTELSAT HOTBIRD 13G","OBJECT_ID":"2022-146A","EPOCH":"2026-03-03T19:16:15.906432","MEAN_MOTION":1.00271848,"ECCENTRICITY":0.0001925,"INCLINATION":0.049,"RA_OF_ASC_NODE":231.7228,"ARG_OF_PERICENTER":312.8646,"MEAN_ANOMALY":279.0272,"EPHEMERIS_TYPE":0,"CLASSIFICATION_TYPE":"U","NORAD_CAT_ID":54225,"ELEMENT_SET_NO":999,"REV_AT_EPOCH":640,"BSTAR":0,"MEAN_MOTION_DOT":7.3e-7,"MEAN_MOTION_DDOT":0},{"OBJECT_NAME":"EUTELSAT 10B","OBJECT_ID":"2022-157A","EPOCH":"2026-03-03T08:59:11.737824","MEAN_MOTION":1.00267833,"ECCENTRICITY":0.00011425,"INCLINATION":0.0589,"RA_OF_ASC_NODE":101.4865,"ARG_OF_PERICENTER":22.8239,"MEAN_ANOMALY":181.5711,"EPHEMERIS_TYPE":0,"CLASSIFICATION_TYPE":"U","NORAD_CAT_ID":54259,"ELEMENT_SET_NO":999,"REV_AT_EPOCH":1196,"BSTAR":0,"MEAN_MOTION_DOT":5.2e-7,"MEAN_MOTION_DDOT":0},{"OBJECT_NAME":"EUTELSAT 36D","OBJECT_ID":"2024-059A","EPOCH":"2026-03-03T19:22:52.771008","MEAN_MOTION":1.0027061,"ECCENTRICITY":2.66e-5,"INCLINATION":0.0035,"RA_OF_ASC_NODE":150.7679,"ARG_OF_PERICENTER":178.2719,"MEAN_ANOMALY":159.0896,"EPHEMERIS_TYPE":0,"CLASSIFICATION_TYPE":"U","NORAD_CAT_ID":59346,"ELEMENT_SET_NO":999,"REV_AT_EPOCH":709,"BSTAR":0,"MEAN_MOTION_DOT":1.42e-6,"MEAN_MOTION_DDOT":0}]
