EUTELSAT 9B             
1 41310U 16005A   26062.65961444  .00000048  00000+0  00000+0 0  9996
2 41310   0.0244  59.2723 0004332 259.6648  88.9322  1.00274347 37056
EUTELSAT 65 WEST A      
1 41382U 16014A   26062.78753514 -.00000290  00000+0  00000+0 0  9996
2 41382   0.0701  40.6499 0002243 296.5619  42.6460  1.00272459 36471
EUTELSAT 117 WEST B     
1 41589U 16038B   26062.49199334 -.00000026  00000+0  00000+0 0  9990
2 41589   0.0336  12.5223 0000104 202.0332   6.8113  1.00271412 35604
EUTELSAT 172B           
1 42741U 17029B   26062.76318167 -.00000020  00000+0  00000+0 0  9993
2 42741   0.0192 155.2041 0000184  81.6350  11.4007  1.00272077 32684
EUTELSAT 7C             
1 44334U 19034B   26062.80183520  .00000034  00000+0  00000+0 0  9993
2 44334   0.0725 180.8078 0003319 149.0283 127.3508  1.00270080  5772
EUTELSAT 5 WEST B       
1 44624U 19067A   26062.79940852 -.00000056  00000+0  00000+0 0  9993
2 44624   0.0961 309.5325 0003204  41.5845  93.1887  1.00272501 23381
EUTELSAT KONNECT        
1 45027U 20005B   26062.80183520  .00000035  00000+0  00000+0 0  9994
2 45027   0.0668  97.9099 0001068 222.6433 136.8477  1.00271071 23279
EUTELSAT QUANTUM        
1 49056U 21069B   26062.73856819  .00000112  00000+0  00000+0 0  9997
2 49056   0.0443 308.4279 0002930  29.7730 136.8642  1.00271865 16874
EUTELSAT KONNECT VHTS   
1 53765U 22110A   26062.30181436  .00000001  00000+0  00000+0 0  9993
2 53765   0.0592 102.4824 0002842 212.0325 317.8745  1.00270723  5772
EUTELSAT HOTBIRD 13F    
1 54048U 22134A   26062.80304854  .00000073  00000+0  00000+0 0  9999
2 54048   0.0587 295.8316 0002101  61.3740 106.4330  1.00271989 12324
EUTELSAT HOTBIRD 13G    
1 54225U 22146A   26062.80296188  .00000073  00000+0  00000+0 0  9999
2 54225   0.0490 231.7228 0001925 312.8646 279.0272  1.00271848  6405
EUTELSAT 10B            
1 54259U 22157A   26062.37444141  .00000052  00000+0  00000+0 0  9991
2 54259   0.0589 101.4865 0001142  22.8239 181.5711  1.00267833 11969
EUTELSAT 36D            
1 59346U 24059A   26062.80755522  .00000142  00000+0  00000+0 0  9992
2 59346   0.0035 150.7679 0000266 178.2719 159.0896  1.00270610  7092
